[{"OBJECT_NAME":"LEMUR-2-DEMBITZ","OBJECT_ID":"2017-042T","EPOCH":"2026-03-09T11:23:53.232288","MEAN_MOTION":15.26947128,"ECCENTRICITY":0.00069617,"INCLINATION":97.3807,"RA_OF_ASC_NODE":250.9241,"ARG_OF_PERICENTER":17.1421,"MEAN_ANOMALY":343.0051,"EPHEMERIS_TYPE":0,"CLASSIFICATION_TYPE":"U","NORAD_CAT_ID":42842,"ELEMENT_SET_NO":999,"REV_AT_EPOCH":47311,"BSTAR":0.00076560825,"MEAN_MOTION_DOT":0.00020231,"MEAN_MOTION_DDOT":0},{"OBJECT_NAME":"STARLINK-30544","OBJECT_ID":"2023-158E","EPOCH":"2026-03-09T07:07:54.230880","MEAN_MOTION":15.27633848,"ECCENTRICITY":0.0002176,"INCLINATION":43.0065,"RA_OF_ASC_NODE":28.9469,"ARG_OF_PERICENTER":251.3616,"MEAN_ANOMALY":108.6999,"EPHEMERIS_TYPE":0,"CLASSIFICATION_TYPE":"U","NORAD_CAT_ID":58055,"ELEMENT_SET_NO":999,"REV_AT_EPOCH":13351,"BSTAR":-0.00044228416,"MEAN_MOTION_DOT":-0.00012434,"MEAN_MOTION_DDOT":0}]
